FENGYUN 1C DEB          
1 36192U 99025DTR 17345.12759770  .00001575  00000-0  32542-3 0  9991
2 36192  98.7330 101.7459 0150506 161.3622 199.3169 14.55031588543985
